{
    "links": {
        "self": "http://www.neowsapp.com/rest/v1/neo/3144511?api_key=iIulBulltgU6a56xZRHN4H3l9WmuAYTsLGpBGhQ2"
    },
    "id": "3144511",
    "neo_reference_id": "3144511",
    "name": "(2002 XF40)",
    "designation": "2002 XF40",
    "nasa_jpl_url": "http://ssd.jpl.nasa.gov/sbdb.cgi?sstr=3144511",
    "absolute_magnitude_h": 24.9,
    "estimated_diameter": {
        "kilometers": {
            "estimated_diameter_min": 0.0278326768,
            "estimated_diameter_max": 0.0622357573
        },
        "meters": {
            "estimated_diameter_min": 27.8326768072,
            "estimated_diameter_max": 62.2357573367
        },
        "miles": {
            "estimated_diameter_min": 0.0172944182,
            "estimated_diameter_max": 0.0386714948
        },
        "feet": {
            "estimated_diameter_min": 91.3145593761,
            "estimated_diameter_max": 204.1855621004
        }
    },
    "is_potentially_hazardous_asteroid": false,
    "close_approach_data": [
        {
            "close_approach_date": "2002-12-04",
            "close_approach_date_full": "2002-Dec-04 14:56",
            "epoch_date_close_approach": 1039013760000,
            "relative_velocity": {
                "kilometers_per_second": "9.4866542386",
                "kilometers_per_hour": "34151.9552591113",
                "miles_per_hour": "21220.6968664184"
            },
            "miss_distance": {
                "astronomical": "0.0250810584",
                "lunar": "9.7565317176",
                "kilometers": "3752072.913985608",
                "miles": "2331429.9989050704"
            },
            "orbiting_body": "Earth"
        }
    ],
    "orbital_data": {
        "orbit_id": "6",
        "orbit_determination_date": "2017-04-06 09:14:31",
        "first_observation_date": "2002-12-10",
        "last_observation_date": "2002-12-12",
        "data_arc_in_days": 2,
        "observations_used": 13,
        "orbit_uncertainty": "9",
        "minimum_orbit_intersection": ".021015",
        "jupiter_tisserand_invariant": "4.107",
        "epoch_osculation": "2452619.5",
        "eccentricity": ".4263901000141216",
        "semi_major_axis": "1.681119200852193",
        "inclination": "10.11138842705195",
        "ascending_node_longitude": "74.99336064433027",
        "orbital_period": "796.1523650674446",
        "perihelion_distance": ".9643066166651661",
        "perihelion_argument": "326.5027022102204",
        "aphelion_distance": "2.397931785039219",
        "perihelion_time": "2452588.338786649968",
        "mean_anomaly": "14.09031398790256",
        "mean_motion": ".4521747542249695",
        "equinox": "J2000",
        "orbit_class": {
            "orbit_class_type": "APO",
            "orbit_class_description": "Near-Earth asteroid orbits which cross the Earth’s orbit similar to that of 1862 Apollo",
            "orbit_class_range": "a (semi-major axis) > 1.0 AU; q (perihelion) < 1.017 AU"
        }
    },
    "is_sentry_object": false
}